     2.10           N: GPS NAV DATA                         RINEX VERSION / TYPE
RTKCONV 2.4.2                           20231202 214935 UTC PGM / RUN BY / DATE 
log: C:\Users\adminlocal\Desktop\verniquet\verniquet\micro  COMMENT             
format: u-blox                                              COMMENT             
                                                            END OF HEADER       
12 23 12  2 16  0  0.0 -.453243963420E-03 -.397903932026E-11  .000000000000E+00
     .910000000000E+02  .189062500000E+02  .461912097636E-08 -.486061919573E-01
     .953674316406E-06  .876570865512E-02  .778771936893E-05  .515374840164E+04
     .576000000000E+06 -.106170773506E-06 -.303298127052E+01  .428408384323E-07
     .964153451833E+00  .231781250000E+03  .139709084578E+01 -.810748056625E-08
    -.407159816984E-09  .100000000000E+01  .229000000000E+04  .000000000000E+00
     .240000000000E+01  .000000000000E+00 -.125728547573E-07  .910000000000E+02
     .575436000000E+06  .400000000000E+01
25 23 12  2 16  0  0.0  .479872338474E-03  .159161572810E-11  .000000000000E+00
     .280000000000E+02  .157812500000E+02  .498627912711E-08 -.211240810731E+00
     .871717929840E-06  .115253024269E-01  .731647014618E-05  .515364255524E+04
     .576000000000E+06 -.763684511185E-07 -.311745625639E+01  .100582838058E-06
     .951951949945E+00  .233125000000E+03  .105813420729E+01 -.834570477496E-08
    -.419660337680E-09  .100000000000E+01  .229000000000E+04  .000000000000E+00
     .240000000000E+01  .000000000000E+00  .558793544769E-08  .280000000000E+02
     .575436000000E+06  .400000000000E+01
24 23 12  2 16  0  0.0 -.384639017284E-03 -.841282599140E-11  .000000000000E+00
     .900000000000E+02  .106250000000E+01  .541736851229E-08  .167040417323E+01
    -.372529029846E-07  .149385796394E-01  .765360891819E-05  .515362353325E+04
     .576000000000E+06 -.419095158577E-06  .204119417977E+01 -.117346644402E-06
     .933561944705E+00  .220218750000E+03  .948526288807E+00 -.839892127736E-08
     .228580949885E-09  .100000000000E+01  .229000000000E+04  .000000000000E+00
     .240000000000E+01  .000000000000E+00  .232830643654E-08  .900000000000E+02
     .575436000000E+06  .400000000000E+01
32 23 12  2 15 59 44.0 -.592241529375E-03 -.397903932026E-11  .000000000000E+00
     .400000000000E+01 -.599062500000E+02  .440339770490E-08 -.206714758413E+01
    -.312179327011E-05  .717894372065E-02  .919029116631E-05  .515360701942E+04
     .575984000000E+06  .782310962677E-07  .107673553251E+01 -.558793544769E-07
     .960593553332E+00  .199468750000E+03 -.221889279955E+01 -.774425115057E-08
     .357872049664E-09  .100000000000E+01  .229000000000E+04  .000000000000E+00
     .240000000000E+01  .000000000000E+00  .465661287308E-09  .400000000000E+01
     .575436000000E+06  .400000000000E+01
19 23 12  2 15 59 28.0  .406979583204E-03  .522959453519E-11  .000000000000E+00
     .000000000000E+00  .750625000000E+02  .404159692016E-08 -.722726610979E+00
     .401400029659E-05  .936830590945E-02  .836141407490E-05  .515367105484E+04
     .575968000000E+06 -.188127160072E-06 -.194943844664E+01 -.169500708580E-06
     .970658943201E+00  .227406250000E+03  .245350407185E+01 -.786497046473E-08
    -.700029159024E-10  .100000000000E+01  .229000000000E+04  .000000000000E+00
     .240000000000E+01  .000000000000E+00 -.153668224812E-07  .000000000000E+00
     .575436000000E+06  .400000000000E+01
 6 23 12  2 16  0  0.0  .489770434797E-03 -.109139364213E-10  .000000000000E+00
     .250000000000E+02  .398437500000E+02  .377587156592E-08  .152900137901E+01
     .211037695408E-05  .306035438552E-02  .367686152458E-05  .515378921127E+04
     .576000000000E+06  .335276126862E-07 -.995845197704E+00  .186264514923E-08
     .989520852167E+00  .320125000000E+03 -.827727036782E+00 -.789390024120E-08
     .105718689322E-09  .100000000000E+01  .229000000000E+04  .000000000000E+00
     .240000000000E+01  .000000000000E+00  .372529029846E-08  .250000000000E+02
     .575436000000E+06  .400000000000E+01
11 23 12  2 16  0  0.0 -.484608579427E-03 -.155750967679E-10  .000000000000E+00
     .760000000000E+02  .345312500000E+02  .431875132190E-08  .272116866883E+01
     .189058482647E-05  .129143288359E-02  .363029539585E-05  .515363261414E+04
     .576000000000E+06 -.298023223877E-07 -.958810930598E+00 -.242143869400E-07
     .965922318747E+00  .309750000000E+03 -.254521762758E+01 -.815248244076E-08
     .120004998690E-09  .100000000000E+01  .229000000000E+04  .000000000000E+00
     .240000000000E+01  .000000000000E+00 -.838190317154E-08  .844000000000E+03
     .575436000000E+06  .400000000000E+01
29 23 12  2 16  0  0.0 -.610013026744E-03  .227373675443E-12  .000000000000E+00
     .760000000000E+02  .740937500000E+02  .401516724783E-08 -.287523439125E+01
     .377185642719E-05  .251515686978E-02  .776909291744E-05  .515368336487E+04
     .576000000000E+06  .223517417908E-07 -.197930880392E+01  .447034835815E-07
     .973883492602E+00  .238625000000E+03  .256157405820E+01 -.775318009393E-08
    -.174650132022E-09  .100000000000E+01  .229000000000E+04  .000000000000E+00
     .340000000000E+01  .000000000000E+00 -.102445483208E-07  .760000000000E+02
     .575436000000E+06  .400000000000E+01
15 23 12  2 16  0  0.0  .102953054011E-03  .375166564481E-11  .000000000000E+00
     .430000000000E+02 -.691875000000E+02  .495234914236E-08  .244875645503E+01
    -.369548797607E-05  .154593241168E-01  .837072730064E-05  .515358085251E+04
     .576000000000E+06  .132247805595E-06  .939477006725E+00 -.189989805222E-06
     .933770981069E+00  .203250000000E+03  .127671880826E+01 -.789818613401E-08
     .233224000430E-09  .100000000000E+01  .229000000000E+04  .000000000000E+00
     .240000000000E+01  .000000000000E+00 -.102445483208E-07  .430000000000E+02
     .575436000000E+06  .400000000000E+01
28 23 12  2 16  0  0.0 -.599757768214E-04 -.932232069317E-11  .000000000000E+00
     .109000000000E+03  .596875000000E+01  .479341395065E-08 -.875384927205E+00
     .378116965294E-06  .762100215070E-03  .715069472790E-05  .515353582954E+04
     .576000000000E+06 -.316649675369E-07  .210003480032E+01 -.167638063431E-07
     .961083658684E+00  .240093750000E+03  .168103713436E+01 -.801783397497E-08
     .191793703263E-09  .100000000000E+01  .229000000000E+04  .000000000000E+00
     .240000000000E+01  .000000000000E+00 -.931322574615E-08  .365000000000E+03
     .575436000000E+06  .400000000000E+01
10 23 12  2 15 59 44.0 -.637141056359E-04 -.147792889038E-11  .000000000000E+00
     .210000000000E+02 -.784375000000E+02  .407016953890E-08 -.781673380862E+00
    -.390969216824E-05  .915375247132E-02  .509060919285E-05  .515368727112E+04
     .575984000000E+06  .124797224998E-06  .388117886439E-01  .141561031342E-06
     .981821174919E+00  .289625000000E+03 -.241741506341E+01 -.799390440678E-08
    -.178578867098E-11  .100000000000E+01  .229000000000E+04  .000000000000E+00
     .240000000000E+01  .000000000000E+00  .232830643654E-08  .210000000000E+02
     .575496000000E+06  .400000000000E+01
12 23 12  2 18  0  0.0 -.453272834420E-03 -.397903932026E-11  .000000000000E+00
     .940000000000E+02  .180000000000E+02  .461947813409E-08  .100152011294E+01
     .830739736557E-06  .876578700263E-02  .785104930401E-05  .515374861145E+04
     .583200000000E+06 -.171363353729E-06 -.303303970678E+01 -.149011611938E-07
     .964150527459E+00  .231531250000E+03  .139710056248E+01 -.807640784338E-08
    -.394302138552E-09  .100000000000E+01  .229000000000E+04  .000000000000E+00
     .240000000000E+01  .000000000000E+00 -.125728547573E-07  .940000000000E+02
     .576006000000E+06  .400000000000E+01
25 23 12  2 18  0  0.0  .479883514345E-03  .159161572810E-11  .000000000000E+00
     .290000000000E+02  .161562500000E+02  .499556522820E-08  .838948677603E+00
     .907108187675E-06  .115256411955E-01  .754930078983E-05  .515364326859E+04
     .583200000000E+06 -.987201929092E-07 -.311751626822E+01  .894069671631E-07
     .951948882206E+00  .230468750000E+03  .105814785192E+01 -.833927593574E-08
    -.430375069706E-09  .100000000000E+01  .229000000000E+04  .000000000000E+00
     .240000000000E+01  .000000000000E+00  .558793544769E-08  .290000000000E+02
     .576006000000E+06  .400000000000E+01
24 23 12  2 18  0  0.0 -.384700018913E-03 -.841282599140E-11  .000000000000E+00
     .910000000000E+02 -.106250000000E+01  .523736101425E-08  .272064311990E+01
    -.180676579475E-06  .149389981525E-01  .762380659580E-05  .515362258148E+04
     .583200000000E+06  .745058059692E-08  .204113524465E+01 -.238418579102E-06
     .933565563964E+00  .216750000000E+03  .948504821947E+00 -.799176146037E-08
     .258582199558E-09  .100000000000E+01  .229000000000E+04  .000000000000E+00
     .240000000000E+01  .000000000000E+00  .232830643654E-08  .910000000000E+02
     .576006000000E+06  .400000000000E+01
32 23 12  2 17 59 44.0 -.592270400375E-03 -.397903932026E-11  .000000000000E+00
     .330000000000E+02 -.541875000000E+02  .448018661776E-08 -.101698970799E+01
    -.268407166004E-05  .717952963896E-02  .891089439392E-05  .515360617447E+04
     .583184000000E+06  .894069671631E-07  .107667991236E+01  .162050127983E-06
     .960595111339E+00  .207062500000E+03 -.221882895634E+01 -.792818738368E-08
     .266439669710E-09  .100000000000E+01  .229000000000E+04  .000000000000E+00
     .240000000000E+01  .000000000000E+00  .465661287308E-09  .330000000000E+02
     .576006000000E+06  .400000000000E+01
